[{"OBJECT_NAME":"STARLINK-5341","OBJECT_ID":"2023-010U","EPOCH":"2026-03-09T22:30:44.851104","MEAN_MOTION":14.98322209,"ECCENTRICITY":0.00023398,"INCLINATION":70.0024,"RA_OF_ASC_NODE":3.9794,"ARG_OF_PERICENTER":273.4777,"MEAN_ANOMALY":86.6114,"EPHEMERIS_TYPE":0,"CLASSIFICATION_TYPE":"U","NORAD_CAT_ID":55287,"ELEMENT_SET_NO":999,"REV_AT_EPOCH":17379,"BSTAR":0.00024384585,"MEAN_MOTION_DOT":2.817e-5,"MEAN_MOTION_DDOT":0},{"OBJECT_NAME":"BRO-14","OBJECT_ID":"2024-149CM","EPOCH":"2026-03-09T19:21:31.034016","MEAN_MOTION":14.95926897,"ECCENTRICITY":0.000793,"INCLINATION":97.6931,"RA_OF_ASC_NODE":146.3614,"ARG_OF_PERICENTER":74.9836,"MEAN_ANOMALY":285.2263,"EPHEMERIS_TYPE":0,"CLASSIFICATION_TYPE":"U","NORAD_CAT_ID":60551,"ELEMENT_SET_NO":999,"REV_AT_EPOCH":8513,"BSTAR":0.00014547278,"MEAN_MOTION_DOT":1.572e-5,"MEAN_MOTION_DDOT":0}]
